{"type": "FeatureCollection", "features": [ {"type": "Feature", "properties": {"norad_id": 66465, "name": "STARLINK-35448", "group": "last-30-days", "lat": -40.12935065120429, "lon": -36.056242360507134, "alt_km": 446.2209140913301, "timestamp": "2025-12-11T08:58:25.853524+00:00", "meta": {"OBJECT_NAME": "STARLINK-35448", "OBJECT_ID": "2025-262K", "EPOCH": "2025-12-11T04:00:01.998720", "MEAN_MOTION": 15.40601464, "ECCENTRICITY": 0.0002104, "INCLINATION": 43.0004, "RA_OF_ASC_NODE": 80.3704, "ARG_OF_PERICENTER": 278.6185, "MEAN_ANOMALY": 261.6805, "EPHEMERIS_TYPE": 0, "CLASSIFICATION_TYPE": "U", "NORAD_CAT_ID": 66465, "ELEMENT_SET_NO": 999, "REV_AT_EPOCH": 538, "BSTAR": 0.0023922, "MEAN_MOTION_DOT": 0.00100624, "MEAN_MOTION_DDOT": 0}, "tle": {"line1": "1 66465U 25262K   25345.16668980  .00100624  00000+0  23922-2 0  9999", "line2": "2 66465  43.0004  80.3704 0002104 278.6185 261.6805 15.40601464  5381"}}, "geometry": {"type": "Point", "coordinates": [-36.056242360507134, -40.12935065120429]}}, {"type": "Feature", "properties": {"norad_id": 66466, "name": "STARLINK-35388", "group": "last-30-days", "lat": -42.611553660312495, "lon": -20.04221776864953, "alt_km": 444.2888157688212, "timestamp": "2025-12-11T08:58:25.853535+00:00", "meta": {"OBJECT_NAME": "STARLINK-35388", "OBJECT_ID": "2025-262L", "EPOCH": "2025-12-11T04:00:01.998720", "MEAN_MOTION": 15.42489274, "ECCENTRICITY": 9.28e-05, "INCLINATION": 43.0006, "RA_OF_ASC_NODE": 80.3415, "ARG_OF_PERICENTER": 267.1567, "MEAN_ANOMALY": 284.414, "EPHEMERIS_TYPE": 0, "CLASSIFICATION_TYPE": "U", "NORAD_CAT_ID": 66466, "ELEMENT_SET_NO": 999, "REV_AT_EPOCH": 538, "BSTAR": -0.056716, "MEAN_MOTION_DOT": -0.02252371, "MEAN_MOTION_DDOT": 0}, "tle": {"line1": "1 66466U 25262L   25345.16668980 -.02252371  00000+0 -56716-1 0  9997", "line2": "2 66466  43.0006  80.3415 0000928 267.1567 284.4140 15.42489274  5382"}}, "geometry": {"type": "Point", "coordinates": [-20.04221776864953, -42.611553660312495]}}, {"type": "Feature", "properties": {"norad_id": 66467, "name": "STARLINK-35682", "group": "last-30-days", "lat": -35.57200312356592, "lon": -50.66630816094067, "alt_km": 446.3446064442378, "timestamp": "2025-12-11T08:58:25.853548+00:00", "meta": {"OBJECT_NAME": "STARLINK-35682", "OBJECT_ID": "2025-262M", "EPOCH": "2025-12-11T04:00:01.998720", "MEAN_MOTION": 15.40624173, "ECCENTRICITY": 0.0001446, "INCLINATION": 43.0006, "RA_OF_ASC_NODE": 80.4002, "ARG_OF_PERICENTER": 272.9014, "MEAN_ANOMALY": 254.9487, "EPHEMERIS_TYPE": 0, "CLASSIFICATION_TYPE": "U", "NORAD_CAT_ID": 66467, "ELEMENT_SET_NO": 999, "REV_AT_EPOCH": 538, "BSTAR": 0.0032625, "MEAN_MOTION_DOT": 0.00138127, "MEAN_MOTION_DDOT": 0}, "tle": {"line1": "1 66467U 25262M   25345.16668980  .00138127  00000+0  32625-2 0  9990", "line2": "2 66467  43.0006  80.4002 0001446 272.9014 254.9487 15.40624173  5386"}}, "geometry": {"type": "Point", "coordinates": [-50.66630816094067, -35.57200312356592]}}, {"type": "Feature", "properties": {"norad_id": 66468, "name": "STARLINK-35331", "group": "last-30-days", "lat": -42.84138876649969, "lon": -5.237072357635672, "alt_km": 439.9887340017913, "timestamp": "2025-12-11T08:58:25.853558+00:00", "meta": {"OBJECT_NAME": "STARLINK-35331", "OBJECT_ID": "2025-262N", "EPOCH": "2025-12-11T04:00:01.998720", "MEAN_MOTION": 15.43530495, "ECCENTRICITY": 0.0001472, "INCLINATION": 43.0005, "RA_OF_ASC_NODE": 80.3187, "ARG_OF_PERICENTER": 278.6078, "MEAN_ANOMALY": 282.9648, "EPHEMERIS_TYPE": 0, "CLASSIFICATION_TYPE": "U", "NORAD_CAT_ID": 66468, "ELEMENT_SET_NO": 999, "REV_AT_EPOCH": 538, "BSTAR": -0.03777, "MEAN_MOTION_DOT": -0.01561541, "MEAN_MOTION_DDOT": 0}, "tle": {"line1": "1 66468U 25262N   25345.16668980 -.01561541  00000+0 -37770-1 0  9999", "line2": "2 66468  43.0005  80.3187 0001472 278.6078 282.9648 15.43530495  5387"}}, "geometry": {"type": "Point", "coordinates": [-5.237072357635672, -42.84138876649969]}}, {"type": "Feature", "properties": {"norad_id": 66469, "name": "STARLINK-35451", "group": "last-30-days", "lat": -34.97463241724043, "lon": 30.395541393431913, "alt_km": 419.48942227254247, "timestamp": "2025-12-11T08:58:25.853569+00:00", "meta": {"OBJECT_NAME": "STARLINK-35451", "OBJECT_ID": "2025-262P", "EPOCH": "2025-12-10T16:12:32.558112", "MEAN_MOTION": 15.50219904, "ECCENTRICITY": 4.921e-05, "INCLINATION": 43.0005, "RA_OF_ASC_NODE": 83.1302, "ARG_OF_PERICENTER": 334.6757, "MEAN_ANOMALY": 25.4079, "EPHEMERIS_TYPE": 0, "CLASSIFICATION_TYPE": "U", "NORAD_CAT_ID": 66469, "ELEMENT_SET_NO": 999, "REV_AT_EPOCH": 524, "BSTAR": -0.0029160526, "MEAN_MOTION_DOT": -0.00165698, "MEAN_MOTION_DDOT": 0}, "tle": {"line1": "1 66469U 25262P   25344.67537683 -.00165698  00000+0 -29161-2 0  9998", "line2": "2 66469  43.0005  83.1302 0000492 334.6757  25.4079 15.50219904  5246"}}, "geometry": {"type": "Point", "coordinates": [30.395541393431913, -34.97463241724043]}}, {"type": "Feature", "properties": {"norad_id": 66470, "name": "STARLINK-35655", "group": "last-30-days", "lat": -41.485961082216186, "lon": 7.481905888307069, "alt_km": 436.3985079015183, "timestamp": "2025-12-11T08:58:25.853580+00:00", "meta": {"OBJECT_NAME": "STARLINK-35655", "OBJECT_ID": "2025-262Q", "EPOCH": "2025-12-11T04:00:01.998720", "MEAN_MOTION": 15.45016783, "ECCENTRICITY": 0.0001146, "INCLINATION": 43.0002, "RA_OF_ASC_NODE": 80.297, "ARG_OF_PERICENTER": 269.3359, "MEAN_ANOMALY": 300.7505, "EPHEMERIS_TYPE": 0, "CLASSIFICATION_TYPE": "U", "NORAD_CAT_ID": 66470, "ELEMENT_SET_NO": 999, "REV_AT_EPOCH": 538, "BSTAR": -0.047283, "MEAN_MOTION_DOT": -0.0203289, "MEAN_MOTION_DDOT": 0}, "tle": {"line1": "1 66470U 25262Q   25345.16668980 -.02032890  00000+0 -47283-1 0  9993", "line2": "2 66470  43.0002  80.2970 0001146 269.3359 300.7505 15.45016783  5385"}}, "geometry": {"type": "Point", "coordinates": [7.481905888307069, -41.485961082216186]}}, {"type": "Feature", "properties": {"norad_id": 66471, "name": "STARLINK-35569", "group": "last-30-days", "lat": -39.280445379403396, "lon": 17.70627150737287, "alt_km": 432.35919401503907, "timestamp": "2025-12-11T08:58:25.853590+00:00", "meta": {"OBJECT_NAME": "STARLINK-35569", "OBJECT_ID": "2025-262R", "EPOCH": "2025-12-11T04:00:01.998720", "MEAN_MOTION": 15.4635006, "ECCENTRICITY": 0.0001237, "INCLINATION": 43.0003, "RA_OF_ASC_NODE": 80.2796, "ARG_OF_PERICENTER": 269.8838, "MEAN_ANOMALY": 307.3188, "EPHEMERIS_TYPE": 0, "CLASSIFICATION_TYPE": "U", "NORAD_CAT_ID": 66471, "ELEMENT_SET_NO": 999, "REV_AT_EPOCH": 538, "BSTAR": -0.04519, "MEAN_MOTION_DOT": -0.02034736, "MEAN_MOTION_DDOT": 0}, "tle": {"line1": "1 66471U 25262R   25345.16668980 -.02034736  00000+0 -45190-1 0  9990", "line2": "2 66471  43.0003  80.2796 0001237 269.8838 307.3188 15.46350060  5381"}}, "geometry": {"type": "Point", "coordinates": [17.70627150737287, -39.280445379403396]}}, {"type": "Feature", "properties": {"norad_id": 66472, "name": "STARLINK-35567", "group": "last-30-days", "lat": -34.13052916885189, "lon": 32.37630720322332, "alt_km": 417.73445030155926, "timestamp": "2025-12-11T08:58:25.853601+00:00", "meta": {"OBJECT_NAME": "STARLINK-35567", "OBJECT_ID": "2025-262S", "EPOCH": "2025-12-11T04:34:18.592608", "MEAN_MOTION": 15.49829605, "ECCENTRICITY": 0.0004749, "INCLINATION": 43.0003, "RA_OF_ASC_NODE": 80.1166, "ARG_OF_PERICENTER": 259.6421, "MEAN_ANOMALY": 100.3904, "EPHEMERIS_TYPE": 0, "CLASSIFICATION_TYPE": "U", "NORAD_CAT_ID": 66472, "ELEMENT_SET_NO": 999, "REV_AT_EPOCH": 532, "BSTAR": 0.0017865, "MEAN_MOTION_DOT": 0.001031, "MEAN_MOTION_DDOT": 0}, "tle": {"line1": "1 66472U 25262S   25345.19049297  .00103100  00000+0  17865-2 0  9995", "line2": "2 66472  43.0003  80.1166 0004749 259.6421 100.3904 15.49829605  5328"}}, "geometry": {"type": "Point", "coordinates": [32.37630720322332, -34.13052916885189]}}, {"type": "Feature", "properties": {"norad_id": 66473, "name": "STARLINK-35568", "group": "last-30-days", "lat": -32.30871422506146, "lon": 36.296665186410685, "alt_km": 416.507673534541, "timestamp": "2025-12-11T08:58:25.853614+00:00", "meta": {"OBJECT_NAME": "STARLINK-35568", "OBJECT_ID": "2025-262T", "EPOCH": "2025-12-10T17:44:14.020224", "MEAN_MOTION": 15.50606476, "ECCENTRICITY": 0.00014813, "INCLINATION": 43.0004, "RA_OF_ASC_NODE": 82.7481, "ARG_OF_PERICENTER": 265.4377, "MEAN_ANOMALY": 94.6314, "EPHEMERIS_TYPE": 0, "CLASSIFICATION_TYPE": "U", "NORAD_CAT_ID": 66473, "ELEMENT_SET_NO": 999, "REV_AT_EPOCH": 525, "BSTAR": 0.0023568265, "MEAN_MOTION_DOT": 0.0014057, "MEAN_MOTION_DDOT": 0}, "tle": {"line1": "1 66473U 25262T   25344.73905116  .00140570  00000+0  23568-2 0  9995", "line2": "2 66473  43.0004  82.7481 0001481 265.4377  94.6314 15.50606476  5256"}}, "geometry": {"type": "Point", "coordinates": [36.296665186410685, -32.30871422506146]}}, {"type": "Feature", "properties": {"norad_id": 66474, "name": "STARLINK-35620", "group": "last-30-days", "lat": -31.403875718852497, "lon": 38.098283270828446, "alt_km": 416.4546628118924, "timestamp": "2025-12-11T08:58:25.853626+00:00", "meta": {"OBJECT_NAME": "STARLINK-35620", "OBJECT_ID": "2025-262U", "EPOCH": "2025-12-10T17:43:46.078464", "MEAN_MOTION": 15.50582881, "ECCENTRICITY": 0.00014562, "INCLINATION": 43.0004, "RA_OF_ASC_NODE": 82.745, "ARG_OF_PERICENTER": 267.7491, "MEAN_ANOMALY": 92.3203, "EPHEMERIS_TYPE": 0, "CLASSIFICATION_TYPE": "U", "NORAD_CAT_ID": 66474, "ELEMENT_SET_NO": 999, "REV_AT_EPOCH": 525, "BSTAR": 0.0027072796, "MEAN_MOTION_DOT": 0.0016183, "MEAN_MOTION_DDOT": 0}, "tle": {"line1": "1 66474U 25262U   25344.73872776  .00161830  00000+0  27073-2 0  9998", "line2": "2 66474  43.0004  82.7450 0001456 267.7491  92.3203 15.50582881  5252"}}, "geometry": {"type": "Point", "coordinates": [38.098283270828446, -31.403875718852497]}}]}